{"type": "FeatureCollection", "features": [ {"type": "Feature", "properties": {"norad_id": 38516, "name": "FENGYUN 1C DEB", "group": "fengyun-1c-debris", "lat": 30.79308189134706, "lon": -23.032273227544, "alt_km": 735.3152152375924, "timestamp": "2025-12-24T09:46:31.294230+00:00", "meta": {"OBJECT_NAME": "FENGYUN 1C DEB", "OBJECT_ID": "1999-025ETB", "EPOCH": "2025-12-21T16:19:27.140736", "MEAN_MOTION": 14.34054036, "ECCENTRICITY": 0.01117632, "INCLINATION": 98.4432, "RA_OF_ASC_NODE": 339.383, "ARG_OF_PERICENTER": 98.9143, "MEAN_ANOMALY": 262.4714, "EPHEMERIS_TYPE": 0, "CLASSIFICATION_TYPE": "U", "NORAD_CAT_ID": 38516, "ELEMENT_SET_NO": 999, "REV_AT_EPOCH": 85001, "BSTAR": 8.4738356e-05, "MEAN_MOTION_DOT": 2.11e-06, "MEAN_MOTION_DDOT": 0}, "tle": {"line1": "1 38516U 99025ETB 25355.68017524  .00000211  00000+0  84738-4 0  9998", "line2": "2 38516  98.4432 339.3830 0111763  98.9143 262.4714 14.34054036850017"}}, "geometry": {"type": "Point", "coordinates": [-23.032273227544, 30.79308189134706]}}, {"type": "Feature", "properties": {"norad_id": 38717, "name": "FENGYUN 1C DEB", "group": "fengyun-1c-debris", "lat": 20.999429425647367, "lon": 10.473037416626424, "alt_km": 805.0009775852468, "timestamp": "2025-12-24T09:46:31.294240+00:00", "meta": {"OBJECT_NAME": "FENGYUN 1C DEB", "OBJECT_ID": "1999-025ETJ", "EPOCH": "2025-12-20T20:16:03.375264", "MEAN_MOTION": 14.19985703, "ECCENTRICITY": 0.00566207, "INCLINATION": 99.1583, "RA_OF_ASC_NODE": 10.338, "ARG_OF_PERICENTER": 330.8628, "MEAN_ANOMALY": 207.0088, "EPHEMERIS_TYPE": 0, "CLASSIFICATION_TYPE": "U", "NORAD_CAT_ID": 38717, "ELEMENT_SET_NO": 999, "REV_AT_EPOCH": 58541, "BSTAR": 0.001109032, "MEAN_MOTION_DOT": 2.349e-05, "MEAN_MOTION_DDOT": 0}, "tle": {"line1": "1 38717U 99025ETJ 25354.84448351  .00002349  00000+0  11090-2 0  9997", "line2": "2 38717  99.1583  10.3380 0056620 330.8628 207.0088 14.19985703585412"}}, "geometry": {"type": "Point", "coordinates": [10.473037416626424, 20.999429425647367]}}, {"type": "Feature", "properties": {"norad_id": 38722, "name": "FENGYUN 1C DEB", "group": "fengyun-1c-debris", "lat": -50.40549221670763, "lon": -93.31142478297411, "alt_km": 806.4770148349289, "timestamp": "2025-12-24T09:46:31.294250+00:00", "meta": {"OBJECT_NAME": "FENGYUN 1C DEB", "OBJECT_ID": "1999-025ETP", "EPOCH": "2025-12-23T03:05:34.681632", "MEAN_MOTION": 14.58641148, "ECCENTRICITY": 0.0145982, "INCLINATION": 99.353, "RA_OF_ASC_NODE": 96.7446, "ARG_OF_PERICENTER": 63.5175, "MEAN_ANOMALY": 298.091, "EPHEMERIS_TYPE": 0, "CLASSIFICATION_TYPE": "U", "NORAD_CAT_ID": 38722, "ELEMENT_SET_NO": 999, "REV_AT_EPOCH": 70615, "BSTAR": 0.0021733607, "MEAN_MOTION_DOT": 0.00011693, "MEAN_MOTION_DDOT": 0}, "tle": {"line1": "1 38722U 99025ETP 25357.12887363  .00011693  00000+0  21734-2 0  9995", "line2": "2 38722  99.3530  96.7446 0145982  63.5175 298.0910 14.58641148706155"}}, "geometry": {"type": "Point", "coordinates": [-93.31142478297411, -50.40549221670763]}}, {"type": "Feature", "properties": {"norad_id": 38725, "name": "FENGYUN 1C DEB", "group": "fengyun-1c-debris", "lat": 17.68991819725509, "lon": -53.03973198317578, "alt_km": 736.5454492383979, "timestamp": "2025-12-24T09:46:31.294260+00:00", "meta": {"OBJECT_NAME": "FENGYUN 1C DEB", "OBJECT_ID": "1999-025ETS", "EPOCH": "2025-12-17T07:16:31.480896", "MEAN_MOTION": 14.42909835, "ECCENTRICITY": 0.00350733, "INCLINATION": 98.8709, "RA_OF_ASC_NODE": 116.7145, "ARG_OF_PERICENTER": 243.5094, "MEAN_ANOMALY": 116.2496, "EPHEMERIS_TYPE": 0, "CLASSIFICATION_TYPE": "U", "NORAD_CAT_ID": 38725, "ELEMENT_SET_NO": 999, "REV_AT_EPOCH": 73418, "BSTAR": 0.0021269674, "MEAN_MOTION_DOT": 7.121e-05, "MEAN_MOTION_DDOT": 0}, "tle": {"line1": "1 38725U 99025ETS 25351.30314214  .00007121  00000+0  21270-2 0  9998", "line2": "2 38725  98.8709 116.7145 0035073 243.5094 116.2496 14.42909835734185"}}, "geometry": {"type": "Point", "coordinates": [-53.03973198317578, 17.68991819725509]}}, {"type": "Feature", "properties": {"norad_id": 38726, "name": "FENGYUN 1C DEB", "group": "fengyun-1c-debris", "lat": 3.625645665815683, "lon": -154.84458420936156, "alt_km": 553.4190947241123, "timestamp": "2025-12-24T09:46:31.294271+00:00", "meta": {"OBJECT_NAME": "FENGYUN 1C DEB", "OBJECT_ID": "1999-025ETT", "EPOCH": "2025-12-18T07:44:42.644256", "MEAN_MOTION": 15.04018095, "ECCENTRICITY": 0.00236822, "INCLINATION": 99.1359, "RA_OF_ASC_NODE": 17.3874, "ARG_OF_PERICENTER": 108.0917, "MEAN_ANOMALY": 252.2886, "EPHEMERIS_TYPE": 0, "CLASSIFICATION_TYPE": "U", "NORAD_CAT_ID": 38726, "ELEMENT_SET_NO": 999, "REV_AT_EPOCH": 69939, "BSTAR": 0.0056393313, "MEAN_MOTION_DOT": 0.00079186, "MEAN_MOTION_DDOT": 0}, "tle": {"line1": "1 38726U 99025ETT 25352.32271579  .00079186  00000+0  56393-2 0  9992", "line2": "2 38726  99.1359  17.3874 0023682 108.0917 252.2886 15.04018095699393"}}, "geometry": {"type": "Point", "coordinates": [-154.84458420936156, 3.625645665815683]}}, {"type": "Feature", "properties": {"norad_id": 38728, "name": "FENGYUN 1C DEB", "group": "fengyun-1c-debris", "lat": 46.426878514806035, "lon": 177.1959640069229, "alt_km": 675.0892290427182, "timestamp": "2025-12-24T09:46:31.294280+00:00", "meta": {"OBJECT_NAME": "FENGYUN 1C DEB", "OBJECT_ID": "1999-025ETV", "EPOCH": "2025-12-22T18:33:42.278400", "MEAN_MOTION": 14.70736364, "ECCENTRICITY": 0.00748504, "INCLINATION": 99.2598, "RA_OF_ASC_NODE": 345.4676, "ARG_OF_PERICENTER": 24.3444, "MEAN_ANOMALY": 101.5642, "EPHEMERIS_TYPE": 0, "CLASSIFICATION_TYPE": "U", "NORAD_CAT_ID": 38728, "ELEMENT_SET_NO": 999, "REV_AT_EPOCH": 65758, "BSTAR": 0.0014415437, "MEAN_MOTION_DOT": 9.126e-05, "MEAN_MOTION_DDOT": 0}, "tle": {"line1": "1 38728U 99025ETV 25356.77340600  .00009126  00000+0  14415-2 0  9995", "line2": "2 38728  99.2598 345.4676 0074850  24.3444 101.5642 14.70736364657583"}}, "geometry": {"type": "Point", "coordinates": [177.1959640069229, 46.426878514806035]}}, {"type": "Feature", "properties": {"norad_id": 38789, "name": "FENGYUN 1C DEB", "group": "fengyun-1c-debris", "lat": 63.31644059968749, "lon": 83.07642388692979, "alt_km": 815.191323154223, "timestamp": "2025-12-24T09:46:31.294310+00:00", "meta": {"OBJECT_NAME": "FENGYUN 1C DEB", "OBJECT_ID": "1999-025EUD", "EPOCH": "2025-12-16T11:04:27.892416", "MEAN_MOTION": 14.45831603, "ECCENTRICITY": 0.02075268, "INCLINATION": 98.8566, "RA_OF_ASC_NODE": 236.7044, "ARG_OF_PERICENTER": 14.1855, "MEAN_ANOMALY": 164.1034, "EPHEMERIS_TYPE": 0, "CLASSIFICATION_TYPE": "U", "NORAD_CAT_ID": 38789, "ELEMENT_SET_NO": 999, "REV_AT_EPOCH": 61899, "BSTAR": 0.00050950207, "MEAN_MOTION_DOT": 2.303e-05, "MEAN_MOTION_DDOT": 0}, "tle": {"line1": "1 38789U 99025EUD 25350.46143394  .00002303  00000+0  50950-3 0  9998", "line2": "2 38789  98.8566 236.7044 0207526  14.1855 164.1034 14.45831603618998"}}, "geometry": {"type": "Point", "coordinates": [83.07642388692979, 63.31644059968749]}}, {"type": "Feature", "properties": {"norad_id": 38795, "name": "FENGYUN 1C DEB", "group": "fengyun-1c-debris", "lat": 56.96557130758875, "lon": 5.9669291177078145, "alt_km": 1511.637861830818, "timestamp": "2025-12-24T09:46:31.294322+00:00", "meta": {"OBJECT_NAME": "FENGYUN 1C DEB", "OBJECT_ID": "1999-025EUK", "EPOCH": "2025-12-19T08:28:58.853280", "MEAN_MOTION": 13.29929799, "ECCENTRICITY": 0.050261, "INCLINATION": 98.6991, "RA_OF_ASC_NODE": 15.2992, "ARG_OF_PERICENTER": 239.3725, "MEAN_ANOMALY": 115.6931, "EPHEMERIS_TYPE": 0, "CLASSIFICATION_TYPE": "U", "NORAD_CAT_ID": 38795, "ELEMENT_SET_NO": 999, "REV_AT_EPOCH": 78600, "BSTAR": 0.0020267, "MEAN_MOTION_DOT": 1.866e-05, "MEAN_MOTION_DDOT": 0}, "tle": {"line1": "1 38795U 99025EUK 25353.35345895  .00001866  00000+0  20267-2 0  9996", "line2": "2 38795  98.6991  15.2992 0502610 239.3725 115.6931 13.29929799786006"}}, "geometry": {"type": "Point", "coordinates": [5.9669291177078145, 56.96557130758875]}}, {"type": "Feature", "properties": {"norad_id": 38797, "name": "FENGYUN 1C DEB", "group": "fengyun-1c-debris", "lat": 57.11503539974323, "lon": 85.92109795690932, "alt_km": 957.9286230023672, "timestamp": "2025-12-24T09:46:31.294333+00:00", "meta": {"OBJECT_NAME": "FENGYUN 1C DEB", "OBJECT_ID": "1999-025EUM", "EPOCH": "2025-12-21T10:37:18.137856", "MEAN_MOTION": 13.61613976, "ECCENTRICITY": 0.02449187, "INCLINATION": 99.4843, "RA_OF_ASC_NODE": 248.0555, "ARG_OF_PERICENTER": 199.0138, "MEAN_ANOMALY": 160.1737, "EPHEMERIS_TYPE": 0, "CLASSIFICATION_TYPE": "U", "NORAD_CAT_ID": 38797, "ELEMENT_SET_NO": 999, "REV_AT_EPOCH": 59401, "BSTAR": 0.00019998345, "MEAN_MOTION_DOT": 1.44e-06, "MEAN_MOTION_DDOT": 0}, "tle": {"line1": "1 38797U 99025EUM 25355.44257104  .00000144  00000+0  19998-3 0  9993", "line2": "2 38797  99.4843 248.0555 0244918 199.0138 160.1737 13.61613976594018"}}, "geometry": {"type": "Point", "coordinates": [85.92109795690932, 57.11503539974323]}}, {"type": "Feature", "properties": {"norad_id": 38799, "name": "FENGYUN 1C DEB", "group": "fengyun-1c-debris", "lat": -7.783389702998463, "lon": -107.33975249179193, "alt_km": 801.7975228543528, "timestamp": "2025-12-24T09:46:31.294343+00:00", "meta": {"OBJECT_NAME": "FENGYUN 1C DEB", "OBJECT_ID": "1999-025EUP", "EPOCH": "2025-12-23T11:21:05.361408", "MEAN_MOTION": 14.48820928, "ECCENTRICITY": 0.01632234, "INCLINATION": 98.4043, "RA_OF_ASC_NODE": 72.8877, "ARG_OF_PERICENTER": 317.4693, "MEAN_ANOMALY": 41.395, "EPHEMERIS_TYPE": 0, "CLASSIFICATION_TYPE": "U", "NORAD_CAT_ID": 38799, "ELEMENT_SET_NO": 999, "REV_AT_EPOCH": 64194, "BSTAR": 0.00093364434, "MEAN_MOTION_DOT": 4.126e-05, "MEAN_MOTION_DDOT": 0}, "tle": {"line1": "1 38799U 99025EUP 25357.47297872  .00004126  00000+0  93364-3 0  9999", "line2": "2 38799  98.4043  72.8877 0163223 317.4693  41.3950 14.48820928641947"}}, "geometry": {"type": "Point", "coordinates": [-107.33975249179193, -7.783389702998463]}}]}